{"type": "FeatureCollection", "features": [{"type": "Feature", "properties": {"station": "Amalshid", "river": "Kushiyara", "water_level_m": 14.19, "danger_level_m": 15.4, "as_of": "2026-08-30 00:00:00", "has_coords": true}, "geometry": {"type": "Point", "coordinates": [91.65, 24.95]}}, {"type": "Feature", "properties": {"station": "Aricha", "river": "Jamuna", "water_level_m": 7.54, "danger_level_m": 8.95, "as_of": "2026-08-30 00:00:00", "has_coords": true}, "geometry": {"type": "Point", "coordinates": [89.917, 23.87]}}, {"type": "Feature", "properties": {"station": "B. Baria", "river": "Titas", "water_level_m": 3.65, "danger_level_m": 5.05, "as_of": "2026-08-30 00:00:00", "has_coords": true}, "geometry": {"type": "Point", "coordinates": [91.0, 23.88]}}, {"type": "Feature", "properties": {"station": "Baghabari", "river": "Karatoa-Atrai-GGH", "water_level_m": 8.66, "danger_level_m": 9.95, "as_of": "2026-08-30 00:00:00", "has_coords": true}, "geometry": {"type": "Point", "coordinates": [89.58, 24.33]}}, {"type": "Feature", "properties": {"station": "Bahadurabad", "river": "Jamuna", "water_level_m": 17.39, "danger_level_m": 19.05, "as_of": "2026-08-30 00:00:00", "has_coords": true}, "geometry": {"type": "Point", "coordinates": [89.676, 25.103]}}, {"type": "Feature", "properties": {"station": "Barisal", "river": "Kirtonkhola", "water_level_m": 1.38, "danger_level_m": 2.1, "as_of": "2026-08-30 00:00:00", "has_coords": true}, "geometry": {"type": "Point", "coordinates": [90.372, 22.702]}}, {"type": "Feature", "properties": {"station": "Bhagyakul", "river": "Padma", "water_level_m": 4.73, "danger_level_m": 5.85, "as_of": "2026-08-30 00:00:00", "has_coords": true}, "geometry": {"type": "Point", "coordinates": [90.309, 23.556]}}, {"type": "Feature", "properties": {"station": "Bhairabbazar", "river": "Upper Meghna", "water_level_m": 3.7, "danger_level_m": 5.8, "as_of": "2026-08-30 00:00:00", "has_coords": true}, "geometry": {"type": "Point", "coordinates": [90.984, 24.056]}}, {"type": "Feature", "properties": {"station": "Chandpur", "river": "Lower Meghna", "water_level_m": 1.35, "danger_level_m": 3.55, "as_of": "2026-08-30 00:00:00", "has_coords": true}, "geometry": {"type": "Point", "coordinates": [90.682, 23.235]}}, {"type": "Feature", "properties": {"station": "Chilmari", "river": "Brahmaputra", "water_level_m": 21.68, "danger_level_m": 23.25, "as_of": "2026-08-30 00:00:00", "has_coords": true}, "geometry": {"type": "Point", "coordinates": [89.68, 25.24]}}, {"type": "Feature", "properties": {"station": "Dalia", "river": "Teesta", "water_level_m": 51.77, "danger_level_m": 52.15, "as_of": "2026-08-30 00:00:00", "has_coords": true}, "geometry": {"type": "Point", "coordinates": [88.93, 26.18]}}, {"type": "Feature", "properties": {"station": "Demra", "river": "Balu", "water_level_m": 2.68, "danger_level_m": 5.3, "as_of": "2026-08-30 00:00:00", "has_coords": true}, "geometry": {"type": "Point", "coordinates": [90.49, 23.72]}}, {"type": "Feature", "properties": {"station": "Fulchari", "river": "Jamuna", "water_level_m": 17.41, "danger_level_m": 19.35, "as_of": "2026-08-30 00:00:00", "has_coords": true}, "geometry": {"type": "Point", "coordinates": [89.7, 24.0]}}, {"type": "Feature", "properties": {"station": "Jamalpur", "river": "Old Brahmaputra", "water_level_m": 11.08, "danger_level_m": 16.55, "as_of": "2026-08-30 00:00:00", "has_coords": true}, "geometry": {"type": "Point", "coordinates": [89.9, 24.9]}}, {"type": "Feature", "properties": {"station": "Kamarkhali", "river": "Gorai", "water_level_m": 7.17, "danger_level_m": 7.75, "as_of": "2026-08-30 00:00:00", "has_coords": true}, "geometry": {"type": "Point", "coordinates": [89.64, 23.99]}}, {"type": "Feature", "properties": {"station": "Kazipur", "river": "Jamuna", "water_level_m": 12.6, "danger_level_m": 14.8, "as_of": "2026-08-30 00:00:00", "has_coords": true}, "geometry": {"type": "Point", "coordinates": [89.65, 24.65]}}, {"type": "Feature", "properties": {"station": "Khulna", "river": "Rupsa", "water_level_m": 0.7, "danger_level_m": 2.6, "as_of": "2026-08-30 00:00:00", "has_coords": true}, "geometry": {"type": "Point", "coordinates": [89.578, 22.812]}}, {"type": "Feature", "properties": {"station": "Kurigram", "river": "Dharla", "water_level_m": 23.16, "danger_level_m": 26.05, "as_of": "2026-08-30 00:00:00", "has_coords": true}, "geometry": {"type": "Point", "coordinates": [89.65, 25.81]}}, {"type": "Feature", "properties": {"station": "Mymensingh", "river": "Old Brahmaputra", "water_level_m": 5.47, "danger_level_m": 12.05, "as_of": "2026-08-30 00:00:00", "has_coords": true}, "geometry": {"type": "Point", "coordinates": [90.4, 24.75]}}, {"type": "Feature", "properties": {"station": "Narayanganj", "river": "Lakhya", "water_level_m": 2.58, "danger_level_m": 5.05, "as_of": "2026-08-30 00:00:00", "has_coords": true}, "geometry": {"type": "Point", "coordinates": [90.5, 23.62]}}, {"type": "Feature", "properties": {"station": "Narsingdi", "river": "Meghna", "water_level_m": 3.2, "danger_level_m": 5.25, "as_of": "2026-08-30 00:00:00", "has_coords": true}, "geometry": {"type": "Point", "coordinates": [90.72, 23.9]}}, {"type": "Feature", "properties": {"station": "Noonkhawa", "river": "Brahmaputra", "water_level_m": 23.92, "danger_level_m": 26.05, "as_of": "2026-08-30 00:00:00", "has_coords": true}, "geometry": {"type": "Point", "coordinates": [89.68, 25.87]}}, {"type": "Feature", "properties": {"station": "Parshuram", "river": "Muhuri", "water_level_m": 5.58, "danger_level_m": 12.55, "as_of": "2026-08-30 00:00:00", "has_coords": true}, "geometry": {"type": "Point", "coordinates": [91.44, 23.217]}}, {"type": "Feature", "properties": {"station": "Ramgarh", "river": "Feni", "water_level_m": 11.49, "danger_level_m": 16.9, "as_of": "2026-08-30 00:00:00", "has_coords": true}, "geometry": {"type": "Point", "coordinates": [91.75, 23.09]}}, {"type": "Feature", "properties": {"station": "Sunamganj", "river": "Surma", "water_level_m": 5.93, "danger_level_m": 7.8, "as_of": "2026-08-30 00:00:00", "has_coords": true}, "geometry": {"type": "Point", "coordinates": [91.4, 25.07]}}, {"type": "Feature", "properties": {"station": "Sylhet", "river": "Surma", "water_level_m": 8.28, "danger_level_m": 10.8, "as_of": "2026-08-30 00:00:00", "has_coords": true}, "geometry": {"type": "Point", "coordinates": [91.87, 24.9]}}], "meta": {"note": "major FFWC stations with public coordinates; full 115-station coords pending"}}