{"type": "FeatureCollection", "features": [{"type": "Feature", "geometry": {"type": "Polygon", "coordinates": [[[91.42199562248578, 23.188122597448796], [91.42280410624149, 23.188931081204505], [91.4214566333153, 23.18920057578974], [91.42010916038912, 23.188392092034032], [91.41876168746295, 23.189470070374977], [91.42037865497436, 23.19108703788639], [91.41903118204819, 23.1918955216421], [91.41876168746295, 23.19324299456828], [91.41983966580389, 23.19432097290922], [91.42091764414484, 23.194051478323985], [91.42091764414484, 23.19512945666493], [91.41903118204819, 23.19647692959111], [91.41930067663341, 23.202675305051535], [91.41876168746295, 23.20348378880724], [91.41795320370724, 23.20294479963677], [91.41741421453676, 23.20348378880724], [91.417683709122, 23.204561767148185], [91.41660573078106, 23.20563974548913], [91.417683709122, 23.206448229244835], [91.41822269829247, 23.208334691341488], [91.41930067663341, 23.20671772383007], [91.42010916038912, 23.20671772383007], [91.41957017121865, 23.207795702171016], [91.42037865497436, 23.208334691341488], [91.42199562248578, 23.205370250903893], [91.42334309541195, 23.205909240074366], [91.42415157916766, 23.20671772383007], [91.42388208458243, 23.209143175097193], [91.42549905209384, 23.210490648023374], [91.42765500877573, 23.2099516588529], [91.4290024817019, 23.20806519675625], [91.43169742755427, 23.207256713000543], [91.43088894379856, 23.205370250903893], [91.43250591130997, 23.20348378880724], [91.43412287882138, 23.20348378880724], [91.43466186799186, 23.204561767148185], [91.43573984633281, 23.20429227256295], [91.43627883550327, 23.205100756318657], [91.43708731925898, 23.204022777977713], [91.43573984633281, 23.2024058104663], [91.43547035174757, 23.200519348369646], [91.43412287882138, 23.19971086461394], [91.43466186799186, 23.198093897102524], [91.43358388965092, 23.19755490793205], [91.43277540589521, 23.193512489153516], [91.43088894379856, 23.19243451081257], [91.43142793296903, 23.191356532471627], [91.43088894379856, 23.190817543301158], [91.43008046004284, 23.191356532471627], [91.43061944921332, 23.19243451081257], [91.42927197628714, 23.193781983738752], [91.42927197628714, 23.194859962079693], [91.4281939979462, 23.195668445835402], [91.42873298711667, 23.19701591876158], [91.42738551419049, 23.19836339168776], [91.42684652502003, 23.20105833754012], [91.4260380412643, 23.20105833754012], [91.4260380412643, 23.19647692959111], [91.42469056833814, 23.19512945666493], [91.4244210737529, 23.19324299456828], [91.42549905209384, 23.19243451081257], [91.42684652502003, 23.19324299456828], [91.4290024817019, 23.190817543301158], [91.42846349253144, 23.188392092034032], [91.42711601960525, 23.187044619107855], [91.42873298711667, 23.18731411369309], [91.42927197628714, 23.186505629937383], [91.42792450336097, 23.185427651596438], [91.4260380412643, 23.186236135352146], [91.42630753584955, 23.1851581570112], [91.42307360082671, 23.18273270574408], [91.42172612790054, 23.180576749062194], [91.42091764414484, 23.180576749062194], [91.42037865497436, 23.181385232817902], [91.42172612790054, 23.18273270574408], [91.4206481495596, 23.184888662425966], [91.42280410624149, 23.187044619107855], [91.42199562248578, 23.188122597448796]], [[91.42361258999719, 23.186236135352146], [91.42415157916766, 23.187044619107855], [91.42280410624149, 23.187044619107855], [91.42361258999719, 23.186236135352146]], [[91.42010916038912, 23.20348378880724], [91.42118713873006, 23.203753283392476], [91.42010916038912, 23.20429227256295], [91.42010916038912, 23.20348378880724]], [[91.42684652502003, 23.191626027056863], [91.42684652502003, 23.1918955216421], [91.42657703043479, 23.191626027056863], [91.42684652502003, 23.191626027056863]]]}, "properties": {"area_km2": 3.12, "bbox": [91.4166, 23.1806, 91.4371, 23.2105], "confidence": 0.85, "label_source": "model", "event_id": "EVT-2024-0812-001", "iou_score": null, "urban_doublebounce_corrected": false, "region": "Feni", "district": "Feni", "division": "Chittagong", "sar_pass_date": "2024-08-12", "sar_sensor": "Sentinel-1 IW GRD", "polarization": "VV+VH"}}], "meta": {"version": "v4.2", "total_features": 1199, "total_area_km2": 21953.9}}