{"type": "FeatureCollection", "features": [{"type": "Feature", "geometry": {"type": "Point", "coordinates": [91.937553, 24.428089]}, "properties": {"gauge_id": "ffwc_47", "station": "Manu-RB", "river": "Manu", "district": "Maulvibazar", "water_level_m": 14.65, "danger_level_m": 17.55, "difference_m": -2.9, "status": "normal", "as_of": "2026-08-30", "source": "observed"}}, {"type": "Feature", "geometry": {"type": "Point", "coordinates": [88.068931, 24.644253]}, "properties": {"gauge_id": "ffwc_82", "station": "Pankha", "river": "Ganges", "district": "Chapai Nawabganj", "water_level_m": 20.66, "danger_level_m": 22.05, "difference_m": -1.39, "status": "normal", "as_of": "2026-08-30", "source": "observed"}}, {"type": "Feature", "geometry": {"type": "Point", "coordinates": [90.209848, 23.187806]}, "properties": {"gauge_id": "ffwc_19", "station": "Madaripur", "river": "Arialkhan", "district": "Madaripur", "water_level_m": 2.71, "danger_level_m": 3.75, "difference_m": -1.04, "status": "normal", "as_of": "2026-08-30", "source": "observed"}}, {"type": "Feature", "geometry": {"type": "Point", "coordinates": [91.250119, 25.191499]}, "properties": {"gauge_id": "ffwc_70", "station": "Lourergorh", "river": "Jadukata", "district": "Sunamganj", "water_level_m": 5.91, "danger_level_m": 8.05, "difference_m": -2.14, "status": "normal", "as_of": "2026-08-30", "source": "observed"}}, {"type": "Feature", "geometry": {"type": "Point", "coordinates": [91.703954, 22.968128]}, "properties": {"gauge_id": "ffwc_17", "station": "Ramgarh", "river": "Feni", "district": "Chattogram", "water_level_m": 11.49, "danger_level_m": 16.9, "difference_m": -5.41, "status": "normal", "as_of": "2026-08-30", "source": "observed"}}, {"type": "Feature", "geometry": {"type": "Point", "coordinates": [88.951514, 25.500356]}, "properties": {"gauge_id": "ffwc_79", "station": "Phulbari", "river": "Ichamati-Jamuna", "district": "Dinajpur", "water_level_m": 25.21, "danger_level_m": 29.5, "difference_m": -4.29, "status": "normal", "as_of": "2026-08-30", "source": "observed"}}, {"type": "Feature", "geometry": {"type": "Point", "coordinates": [88.460897, 26.03796]}, "properties": {"gauge_id": "ffwc_93", "station": "Thakurgaon", "river": "Tangon", "district": "Thakurgaon", "water_level_m": 45.66, "danger_level_m": 49.95, "difference_m": -4.29, "status": "normal", "as_of": "2026-08-30", "source": "observed"}}, {"type": "Feature", "geometry": {"type": "Point", "coordinates": [89.580462, 22.808223]}, "properties": {"gauge_id": "ffwc_14", "station": "Khulna", "river": "Rupsa", "district": "Khulna", "water_level_m": 0.7, "danger_level_m": 2.6, "difference_m": -1.9, "status": "normal", "as_of": "2026-08-30", "source": "forecast"}}, {"type": "Feature", "geometry": {"type": "Point", "coordinates": [89.730003, 25.995899]}, "properties": {"gauge_id": "ffwc_109", "station": "Pateswari", "river": "Dudkumar", "district": "Kurigram", "water_level_m": 27.49, "danger_level_m": 29.6, "difference_m": -2.11, "status": "normal", "as_of": "2026-08-30", "source": "observed"}}, {"type": "Feature", "geometry": {"type": "Point", "coordinates": [90.48001, 23.56269]}, "properties": {"gauge_id": "ffwc_91", "station": "Rekabi-Bazar", "river": "Dhaleswari", "district": "Narayanganj", "water_level_m": 3.25, "danger_level_m": 4.75, "difference_m": -1.5, "status": "normal", "as_of": "2026-08-30", "source": "forecast"}}, {"type": "Feature", "geometry": {"type": "Point", "coordinates": [91.681667, 24.628307]}, "properties": {"gauge_id": "ffwc_52", "station": "Sherpur-Sylhet", "river": "Kushiyara", "district": "Maulvibazar", "water_level_m": 7.92, "danger_level_m": 8.55, "difference_m": -0.63, "status": "warning", "as_of": "2026-08-30", "source": "observed"}}, {"type": "Feature", "geometry": {"type": "Point", "coordinates": [92.11833, 25.087706]}, "properties": {"gauge_id": "ffwc_68", "station": "Sarighat", "river": "Sarigowain", "district": "Sylhet", "water_level_m": 7.93, "danger_level_m": 12.35, "difference_m": -4.42, "status": "normal", "as_of": "2026-08-30", "source": "observed"}}, {"type": "Feature", "geometry": {"type": "Point", "coordinates": [91.389999, 25.1387]}, "properties": {"gauge_id": "ffwc_122", "station": "Muslimpur", "river": "Jhalukhali", "district": "Sunamganj", "water_level_m": 5.96, "danger_level_m": 7.8, "difference_m": -1.84, "status": "normal", "as_of": "2026-08-30", "source": "observed"}}, {"type": "Feature", "geometry": {"type": "Point", "coordinates": [89.599998, 22.464199]}, "properties": {"gauge_id": "ffwc_8", "station": "Mongla", "river": "Pashure", "district": "Bagerhat", "water_level_m": 0.11, "danger_level_m": 1.8, "difference_m": -1.69, "status": "normal", "as_of": "2026-08-30", "source": "observed"}}, {"type": "Feature", "geometry": {"type": "Point", "coordinates": [91.719765, 22.807724]}, "properties": {"gauge_id": "ffwc_13", "station": "Narayanhat", "river": "Halda", "district": "Chattogram", "water_level_m": 9.76, "danger_level_m": 14.8, "difference_m": -5.04, "status": "normal", "as_of": "2026-08-30", "source": "observed"}}, {"type": "Feature", "geometry": {"type": "Point", "coordinates": [90.215824, 25.189811]}, "properties": {"gauge_id": "ffwc_69", "station": "Nakuagaon", "river": "Bhugai", "district": "Sherpur", "water_level_m": 17.08, "danger_level_m": 21.95, "difference_m": -4.87, "status": "normal", "as_of": "2026-08-30", "source": "observed"}}, {"type": "Feature", "geometry": {"type": "Point", "coordinates": [88.969965, 22.617779]}, "properties": {"gauge_id": "ffwc_12", "station": "Shakra", "river": "Ichamati", "district": "Satkhira", "water_level_m": 0.42, "danger_level_m": 3.5, "difference_m": -3.08, "status": "normal", "as_of": "2026-08-30", "source": "observed"}}, {"type": "Feature", "geometry": {"type": "Point", "coordinates": [88.318746, 24.820982]}, "properties": {"gauge_id": "ffwc_58", "station": "Rohanpur", "river": "Punarvaba", "district": "Chapai Nawabganj", "water_level_m": 18.68, "danger_level_m": 21.55, "difference_m": -2.87, "status": "normal", "as_of": "2026-08-30", "source": "observed"}}, {"type": "Feature", "geometry": {"type": "Point", "coordinates": [88.544405, 26.330021]}, "properties": {"gauge_id": "ffwc_81", "station": "Panchagarh", "river": "Upper Karatoa", "district": "Panchagarh", "water_level_m": 65.18, "danger_level_m": 70.3, "difference_m": -5.12, "status": "normal", "as_of": "2026-08-30", "source": "observed"}}, {"type": "Feature", "geometry": {"type": "Point", "coordinates": [89.76646, 25.920668]}, "properties": {"gauge_id": "ffwc_78", "station": "Noonkhawa", "river": "Brahmaputra", "district": "Kurigram", "water_level_m": 23.92, "danger_level_m": 26.05, "difference_m": -2.13, "status": "normal", "as_of": "2026-08-30", "source": "observed"}}, {"type": "Feature", "geometry": {"type": "Point", "coordinates": [89.58656, 25.10754]}, "properties": {"gauge_id": "ffwc_118", "station": "Saghata", "river": "Jamuna", "district": "Gaibandha", "water_level_m": 16.64, "danger_level_m": 18.5, "difference_m": -1.86, "status": "normal", "as_of": "2026-08-30", "source": "observed"}}, {"type": "Feature", "geometry": {"type": "Point", "coordinates": [90.889765, 25.073472]}, "properties": {"gauge_id": "ffwc_120", "station": "Kalmakanda", "river": "Someswari", "district": "Netrokona", "water_level_m": 5.63, "danger_level_m": 6.55, "difference_m": -0.92, "status": "warning", "as_of": "2026-08-30", "source": "observed"}}, {"type": "Feature", "geometry": {"type": "Point", "coordinates": [89.062548, 25.675475]}, "properties": {"gauge_id": "ffwc_76", "station": "Badarganj", "river": "Jamuneswari", "district": "Rangpur", "water_level_m": 27.58, "danger_level_m": 31.7, "difference_m": -4.12, "status": "normal", "as_of": "2026-08-30", "source": "observed"}}, {"type": "Feature", "geometry": {"type": "Point", "coordinates": [89.779999, 25.3664]}, "properties": {"gauge_id": "ffwc_125", "station": "Goalkanda", "river": "Nil-Jinjiram", "district": "Jamalpur", "water_level_m": 17.66, "danger_level_m": 21.5, "difference_m": -3.84, "status": "normal", "as_of": "2026-08-30", "source": "observed"}}, {"type": "Feature", "geometry": {"type": "Point", "coordinates": [88.618762, 25.689237]}, "properties": {"gauge_id": "ffwc_74", "station": "Dinajpur", "river": "Punarbhaba", "district": "Dinajpur", "water_level_m": 26.28, "danger_level_m": 33.05, "difference_m": -6.77, "status": "normal", "as_of": "2026-08-30", "source": "observed"}}, {"type": "Feature", "geometry": {"type": "Point", "coordinates": [90.987282, 23.63091]}, "properties": {"gauge_id": "ffwc_29", "station": "Debidwar", "river": "Gumti", "district": "Comilla", "water_level_m": 4.54, "danger_level_m": 8.05, "difference_m": -3.51, "status": "normal", "as_of": "2026-08-30", "source": "observed"}}, {"type": "Feature", "geometry": {"type": "Point", "coordinates": [90.82, 22.611]}, "properties": {"gauge_id": "ffwc_11", "station": "Daulatkhan", "river": "Lower Meghna", "district": "Bhola", "water_level_m": 2.31, "danger_level_m": 2.95, "difference_m": -0.64, "status": "warning", "as_of": "2026-08-30", "source": "observed"}}, {"type": "Feature", "geometry": {"type": "Point", "coordinates": [89.073729, 26.125276]}, "properties": {"gauge_id": "ffwc_80", "station": "Dalia", "river": "Teesta", "district": "Nilphamari", "water_level_m": 51.77, "danger_level_m": 52.15, "difference_m": -0.38, "status": "warning", "as_of": "2026-08-30", "source": "observed"}}, {"type": "Feature", "geometry": {"type": "Point", "coordinates": [91.19839, 23.471078]}, "properties": {"gauge_id": "ffwc_23", "station": "Comilla", "river": "Gumti", "district": "Comilla", "water_level_m": 7.01, "danger_level_m": 11.3, "difference_m": -4.29, "status": "normal", "as_of": "2026-08-30", "source": "observed"}}, {"type": "Feature", "geometry": {"type": "Point", "coordinates": [89.831691, 23.597854]}, "properties": {"gauge_id": "ffwc_27", "station": "Faridpur", "river": "Kumar", "district": "Faridpur", "water_level_m": 3.76, "danger_level_m": 7.05, "difference_m": -3.29, "status": "normal", "as_of": "2026-08-30", "source": "observed"}}, {"type": "Feature", "geometry": {"type": "Point", "coordinates": [91.830002, 22.322901]}, "properties": {"gauge_id": "ffwc_119", "station": "Chittagong", "river": "Karnaphuli", "district": "Chattogram", "water_level_m": 1.27, "danger_level_m": 4.15, "difference_m": -2.88, "status": "normal", "as_of": "2026-08-30", "source": "forecast"}}, {"type": "Feature", "geometry": {"type": "Point", "coordinates": [92.485642, 24.872495]}, "properties": {"gauge_id": "ffwc_60", "station": "Amalshid", "river": "Kushiyara", "district": "Sylhet", "water_level_m": 14.19, "danger_level_m": 15.4, "difference_m": -1.21, "status": "normal", "as_of": "2026-08-30", "source": "observed"}}, {"type": "Feature", "geometry": {"type": "Point", "coordinates": [89.660004, 25.4391]}, "properties": {"gauge_id": "ffwc_124", "station": "Kamarjani", "river": "Brahmaputra", "district": "Gaibandha", "water_level_m": 19.73, "danger_level_m": 21.7, "difference_m": -1.97, "status": "normal", "as_of": "2026-08-30", "source": "observed"}}, {"type": "Feature", "geometry": {"type": "Point", "coordinates": [91.84582, 24.352029]}, "properties": {"gauge_id": "ffwc_86", "station": "Kamalganj", "river": "Dhalai", "district": "Maulvibazar", "water_level_m": 16.36, "danger_level_m": 19.35, "difference_m": -2.99, "status": "normal", "as_of": "2026-08-30", "source": "observed"}}, {"type": "Feature", "geometry": {"type": "Point", "coordinates": [90.625332, 23.649571]}, "properties": {"gauge_id": "ffwc_84", "station": "Bayderbazar", "river": "Meghna", "district": "Narayanganj", "water_level_m": 3.23, "danger_level_m": 4.7, "difference_m": -1.47, "status": "normal", "as_of": "2026-08-30", "source": "forecast"}}, {"type": "Feature", "geometry": {"type": "Point", "coordinates": [88.731861, 25.767523]}, "properties": {"gauge_id": "ffwc_73", "station": "Bhusirbandar", "river": "Upper Atrai", "district": "Dinajpur", "water_level_m": 34.9, "danger_level_m": 39.15, "difference_m": -4.25, "status": "normal", "as_of": "2026-08-30", "source": "observed"}}, {"type": "Feature", "geometry": {"type": "Point", "coordinates": [90.669998, 25.168699]}, "properties": {"gauge_id": "ffwc_121", "station": "Bijoypur", "river": "Someswari", "district": "Netrokona", "water_level_m": 10.0, "danger_level_m": 13.2, "difference_m": -3.2, "status": "normal", "as_of": "2026-08-30", "source": "observed"}}, {"type": "Feature", "geometry": {"type": "Point", "coordinates": [89.867033, 25.617417]}, "properties": {"gauge_id": "ffwc_127", "station": "Boalmari", "river": "Nil Jinjiram", "district": "Kurigram", "water_level_m": 21.92, "danger_level_m": 23.9, "difference_m": -1.98, "status": "normal", "as_of": "2026-08-30", "source": "observed"}}, {"type": "Feature", "geometry": {"type": "Point", "coordinates": [89.69196, 25.68028]}, "properties": {"gauge_id": "ffwc_117", "station": "Hatia", "river": "Brahmaputra", "district": "Kurigram", "water_level_m": 22.33, "danger_level_m": 24.4, "difference_m": -2.07, "status": "normal", "as_of": "2026-08-30", "source": "observed"}}, {"type": "Feature", "geometry": {"type": "Point", "coordinates": [89.809998, 24.6544]}, "properties": {"gauge_id": "ffwc_123", "station": "Jagannathganj", "river": "Jamuna", "district": "Jamalpur", "water_level_m": 11.67, "danger_level_m": 13.55, "difference_m": -1.88, "status": "normal", "as_of": "2026-08-30", "source": "observed"}}, {"type": "Feature", "geometry": {"type": "Point", "coordinates": [90.025397, 23.878853]}, "properties": {"gauge_id": "ffwc_39", "station": "Jagir", "river": "Old Dhaleswari", "district": "Manikganj", "water_level_m": 4.72, "danger_level_m": 7.8, "difference_m": -3.08, "status": "normal", "as_of": "2026-08-30", "source": "observed"}}, {"type": "Feature", "geometry": {"type": "Point", "coordinates": [91.405531, 25.071634]}, "properties": {"gauge_id": "ffwc_65", "station": "Sunamganj", "river": "Surma", "district": "Sunamganj", "water_level_m": 5.93, "danger_level_m": 7.8, "difference_m": -1.87, "status": "normal", "as_of": "2026-08-31", "source": "forecast"}}, {"type": "Feature", "geometry": {"type": "Point", "coordinates": [91.438231, 23.221259]}, "properties": {"gauge_id": "ffwc_21", "station": "Parshuram", "river": "Muhuri", "district": "Feni", "water_level_m": 5.58, "danger_level_m": 12.55, "difference_m": -6.97, "status": "normal", "as_of": "2026-08-31", "source": "forecast"}}, {"type": "Feature", "geometry": {"type": "Point", "coordinates": [92.216246, 22.194878]}, "properties": {"gauge_id": "ffwc_6", "station": "Bandarban", "river": "Sangu", "district": "Bandarban", "water_level_m": 6.73, "danger_level_m": 14.8, "difference_m": -8.07, "status": "normal", "as_of": "2026-08-31", "source": "forecast"}}, {"type": "Feature", "geometry": {"type": "Point", "coordinates": [91.846427, 22.56086]}, "properties": {"gauge_id": "ffwc_10", "station": "Panchpukuria", "river": "Halda", "district": "Chattogram", "water_level_m": 3.28, "danger_level_m": 9.05, "difference_m": -5.77, "status": "normal", "as_of": "2026-08-31", "source": "forecast"}}, {"type": "Feature", "geometry": {"type": "Point", "coordinates": [90.379997, 22.700199]}, "properties": {"gauge_id": "ffwc_113", "station": "Barisal", "river": "Kirtonkhola", "district": "Barishal", "water_level_m": 1.38, "danger_level_m": 2.1, "difference_m": -0.72, "status": "warning", "as_of": "2026-08-31", "source": "forecast"}}, {"type": "Feature", "geometry": {"type": "Point", "coordinates": [89.138756, 24.497782]}, "properties": {"gauge_id": "ffwc_105", "station": "Singra", "river": "Atrai Gur", "district": "Natore", "water_level_m": 10.48, "danger_level_m": 12.2, "difference_m": -1.72, "status": "normal", "as_of": "2026-08-31", "source": "forecast"}}, {"type": "Feature", "geometry": {"type": "Point", "coordinates": [91.849452, 24.888834]}, "properties": {"gauge_id": "ffwc_59", "station": "Sylhet", "river": "Surma", "district": "Sylhet", "water_level_m": 8.28, "danger_level_m": 10.8, "difference_m": -2.52, "status": "normal", "as_of": "2026-08-31", "source": "forecast"}}, {"type": "Feature", "geometry": {"type": "Point", "coordinates": [89.377776, 25.146083]}, "properties": {"gauge_id": "ffwc_56", "station": "Chakrahimpur", "river": "Karatoa", "district": "Gaibandha", "water_level_m": 14.47, "danger_level_m": 19.7, "difference_m": -5.23, "status": "normal", "as_of": "2026-08-31", "source": "forecast"}}, {"type": "Feature", "geometry": {"type": "Point", "coordinates": [89.391511, 24.831299]}, "properties": {"gauge_id": "ffwc_55", "station": "Bogra", "river": "Karatoa", "district": "Bogra", "water_level_m": 10.41, "danger_level_m": 15.85, "difference_m": -5.44, "status": "normal", "as_of": "2026-08-31", "source": "forecast"}}, {"type": "Feature", "geometry": {"type": "Point", "coordinates": [90.639487, 23.23169]}, "properties": {"gauge_id": "ffwc_20", "station": "Chandpur", "river": "Lower Meghna", "district": "Chandpur", "water_level_m": 1.35, "danger_level_m": 3.55, "difference_m": -2.2, "status": "normal", "as_of": "2026-08-31", "source": "forecast"}}, {"type": "Feature", "geometry": {"type": "Point", "coordinates": [92.191013, 24.890721]}, "properties": {"gauge_id": "ffwc_61", "station": "Sheola", "river": "Kushiyara", "district": "Sylhet", "water_level_m": 11.35, "danger_level_m": 13.05, "difference_m": -1.7, "status": "normal", "as_of": "2026-08-31", "source": "forecast"}}, {"type": "Feature", "geometry": {"type": "Point", "coordinates": [92.079743, 21.773552]}, "properties": {"gauge_id": "ffwc_1", "station": "Chiringa", "river": "Matamuhuri", "district": "Cox's Bazar", "water_level_m": 2.76, "danger_level_m": 5.8, "difference_m": -3.04, "status": "normal", "as_of": "2026-08-31", "source": "forecast"}}, {"type": "Feature", "geometry": {"type": "Point", "coordinates": [89.529999, 25.0243]}, "properties": {"gauge_id": "ffwc_111", "station": "Shimulbari", "river": "Bangali", "district": "Bogra", "water_level_m": 12.48, "danger_level_m": 17.75, "difference_m": -5.27, "status": "normal", "as_of": "2026-08-31", "source": "forecast"}}, {"type": "Feature", "geometry": {"type": "Point", "coordinates": [90.991206, 24.045541]}, "properties": {"gauge_id": "ffwc_42", "station": "Bhairabbazar", "river": "Upper Meghna", "district": "Kishorganj", "water_level_m": 3.7, "danger_level_m": 5.8, "difference_m": -2.1, "status": "normal", "as_of": "2026-08-31", "source": "forecast"}}, {"type": "Feature", "geometry": {"type": "Point", "coordinates": [92.265191, 25.004479]}, "properties": {"gauge_id": "ffwc_64", "station": "Kanaighat", "river": "Surma", "district": "Sylhet", "water_level_m": 11.05, "danger_level_m": 12.75, "difference_m": -1.7, "status": "normal", "as_of": "2026-08-31", "source": "forecast"}}, {"type": "Feature", "geometry": {"type": "Point", "coordinates": [91.774876, 24.496424]}, "properties": {"gauge_id": "ffwc_49", "station": "Moulvibazar", "river": "Manu", "district": "Maulvibazar", "water_level_m": 8.43, "danger_level_m": 11.3, "difference_m": -2.87, "status": "normal", "as_of": "2026-08-31", "source": "forecast"}}, {"type": "Feature", "geometry": {"type": "Point", "coordinates": [90.652813, 25.009779]}, "properties": {"gauge_id": "ffwc_63", "station": "Jariajanjail", "river": "Kangsha", "district": "Netrokona", "water_level_m": 5.95, "danger_level_m": 10.55, "difference_m": -4.6, "status": "normal", "as_of": "2026-08-31", "source": "forecast"}}, {"type": "Feature", "geometry": {"type": "Point", "coordinates": [88.744249, 24.916416]}, "properties": {"gauge_id": "ffwc_54", "station": "Mohadevpur", "river": "Atrai", "district": "Naogaon", "water_level_m": 12.52, "danger_level_m": 18.15, "difference_m": -5.63, "status": "normal", "as_of": "2026-08-31", "source": "forecast"}}, {"type": "Feature", "geometry": {"type": "Point", "coordinates": [91.410342, 24.392752]}, "properties": {"gauge_id": "ffwc_46", "station": "Habiganj", "river": "Khowai", "district": "Habiganj", "water_level_m": 5.52, "danger_level_m": 9.05, "difference_m": -3.53, "status": "normal", "as_of": "2026-08-31", "source": "forecast"}}, {"type": "Feature", "geometry": {"type": "Point", "coordinates": [91.119442, 23.956966]}, "properties": {"gauge_id": "ffwc_108", "station": "B. Baria", "river": "Titas", "district": "Brahmmonbaria", "water_level_m": 3.65, "danger_level_m": 5.05, "difference_m": -1.4, "status": "normal", "as_of": "2026-08-31", "source": "forecast"}}, {"type": "Feature", "geometry": {"type": "Point", "coordinates": [92.209356, 21.793554]}, "properties": {"gauge_id": "ffwc_2", "station": "Lama", "river": "Matamuhuri", "district": "Cox's Bazar", "water_level_m": 7.65, "danger_level_m": 11.8, "difference_m": -4.15, "status": "normal", "as_of": "2026-08-31", "source": "forecast"}}, {"type": "Feature", "geometry": {"type": "Point", "coordinates": [91.379531, 24.785555]}, "properties": {"gauge_id": "ffwc_96", "station": "Derai", "river": "Surma Old Course", "district": "Sunamganj", "water_level_m": 5.25, "danger_level_m": 6.55, "difference_m": -1.3, "status": "normal", "as_of": "2026-08-31", "source": "forecast"}}, {"type": "Feature", "geometry": {"type": "Point", "coordinates": [90.638969, 23.58457]}, "properties": {"gauge_id": "ffwc_89", "station": "Meghna-Br", "river": "Meghna", "district": "Munshiganj", "water_level_m": 2.0, "danger_level_m": 4.55, "difference_m": -2.55, "status": "normal", "as_of": "2026-08-31", "source": "forecast"}}, {"type": "Feature", "geometry": {"type": "Point", "coordinates": [89.82, 23.052]}, "properties": {"gauge_id": "ffwc_114", "station": "Haridaspur", "river": "Madaripur Beel Route", "district": "Gopalganj", "water_level_m": 1.83, "danger_level_m": 3.35, "difference_m": -1.52, "status": "normal", "as_of": "2026-08-31", "source": "forecast"}}, {"type": "Feature", "geometry": {"type": "Point", "coordinates": [89.534597, 25.642046]}, "properties": {"gauge_id": "ffwc_142", "station": "Tarapur", "river": "Teesta", "district": "Gaibandha", "water_level_m": 24.16, "danger_level_m": 28.0, "difference_m": -3.84, "status": "normal", "as_of": "2026-08-31", "source": "forecast"}}, {"type": "Feature", "geometry": {"type": "Point", "coordinates": [91.389698, 24.691644]}, "properties": {"gauge_id": "ffwc_99", "station": "Markuli", "river": "Kushiyara", "district": "Sunamganj", "water_level_m": 6.63, "danger_level_m": 7.05, "difference_m": -0.42, "status": "warning", "as_of": "2026-08-31", "source": "forecast"}}, {"type": "Feature", "geometry": {"type": "Point", "coordinates": [89.667595, 25.82041]}, "properties": {"gauge_id": "ffwc_77", "station": "Kurigram", "river": "Dharla", "district": "Kurigram", "water_level_m": 23.16, "danger_level_m": 26.05, "difference_m": -2.89, "status": "normal", "as_of": "2026-08-31", "source": "forecast"}}, {"type": "Feature", "geometry": {"type": "Point", "coordinates": [89.096763, 23.101868]}, "properties": {"gauge_id": "ffwc_18", "station": "Jhikargacha", "river": "Kobadak", "district": "Jessore", "water_level_m": 1.72, "danger_level_m": 4.65, "difference_m": -2.93, "status": "normal", "as_of": "2026-08-31", "source": "forecast"}}, {"type": "Feature", "geometry": {"type": "Point", "coordinates": [89.437306, 25.787864]}, "properties": {"gauge_id": "ffwc_75", "station": "Kaunia", "river": "Teesta", "district": "Lalmonirhat", "water_level_m": 28.65, "danger_level_m": 29.31, "difference_m": -0.66, "status": "warning", "as_of": "2026-08-31", "source": "forecast"}}, {"type": "Feature", "geometry": {"type": "Point", "coordinates": [92.063472, 22.15791]}, "properties": {"gauge_id": "ffwc_4", "station": "Dohazari", "river": "Sangu", "district": "Chattogram", "water_level_m": 1.44, "danger_level_m": 6.55, "difference_m": -5.11, "status": "normal", "as_of": "2026-08-31", "source": "forecast"}}, {"type": "Feature", "geometry": {"type": "Point", "coordinates": [90.72653, 23.918646]}, "properties": {"gauge_id": "ffwc_98", "station": "Narsingdi", "river": "Meghna", "district": "Narsingdi", "water_level_m": 3.2, "danger_level_m": 5.25, "difference_m": -2.05, "status": "normal", "as_of": "2026-08-31", "source": "forecast"}}, {"type": "Feature", "geometry": {"type": "Point", "coordinates": [90.661579, 25.123256]}, "properties": {"gauge_id": "ffwc_67", "station": "Durgapur", "river": "Someswari", "district": "Netrokona", "water_level_m": 9.11, "danger_level_m": 12.55, "difference_m": -3.44, "status": "normal", "as_of": "2026-08-31", "source": "forecast"}}, {"type": "Feature", "geometry": {"type": "Point", "coordinates": [89.047524, 22.871623]}, "properties": {"gauge_id": "ffwc_15", "station": "Kalaroa", "river": "Betna", "district": "Satkhira", "water_level_m": 1.47, "danger_level_m": 3.35, "difference_m": -1.88, "status": "normal", "as_of": "2026-08-31", "source": "forecast"}}, {"type": "Feature", "geometry": {"type": "Point", "coordinates": [91.59615, 24.098525]}, "properties": {"gauge_id": "ffwc_83", "station": "Ballah", "river": "Khowai", "district": "Habiganj", "water_level_m": 20.25, "danger_level_m": 21.2, "difference_m": -0.95, "status": "warning", "as_of": "2026-08-31", "source": "forecast"}}, {"type": "Feature", "geometry": {"type": "Point", "coordinates": [89.650556, 25.519167]}, "properties": {"gauge_id": "ffwc_141", "station": "Haripur", "river": "Teesta", "district": "Gaibandha", "water_level_m": 20.98, "danger_level_m": 22.3, "difference_m": -1.32, "status": "normal", "as_of": "2026-08-31", "source": "forecast"}}, {"type": "Feature", "geometry": {"type": "Point", "coordinates": [88.932033, 24.844091]}, "properties": {"gauge_id": "ffwc_57", "station": "Naogaon", "river": "Little Jamuna", "district": "Naogaon", "water_level_m": 10.87, "danger_level_m": 14.8, "difference_m": -3.93, "status": "normal", "as_of": "2026-08-31", "source": "forecast"}}, {"type": "Feature", "geometry": {"type": "Point", "coordinates": [91.110489, 24.70217]}, "properties": {"gauge_id": "ffwc_100", "station": "Khaliajuri", "river": "Dhanu", "district": "Netrokona", "water_level_m": 5.11, "danger_level_m": 6.55, "difference_m": -1.44, "status": "normal", "as_of": "2026-08-31", "source": "forecast"}}, {"type": "Feature", "geometry": {"type": "Point", "coordinates": [89.534632, 25.352536]}, "properties": {"gauge_id": "ffwc_71", "station": "Gaibandha", "river": "Ghagot", "district": "Gaibandha", "water_level_m": 18.58, "danger_level_m": 21.25, "difference_m": -2.67, "status": "normal", "as_of": "2026-08-31", "source": "forecast"}}, {"type": "Feature", "geometry": {"type": "Point", "coordinates": [89.582497, 24.129955]}, "properties": {"gauge_id": "ffwc_97", "station": "Baghabari", "river": "Atrai", "district": "Sirajganj", "water_level_m": 8.66, "danger_level_m": 9.95, "difference_m": -1.29, "status": "normal", "as_of": "2026-09-02", "source": "forecast"}}, {"type": "Feature", "geometry": {"type": "Point", "coordinates": [89.958068, 23.862486]}, "properties": {"gauge_id": "ffwc_37", "station": "Taraghat", "river": "Kaliganga", "district": "Manikganj", "water_level_m": 5.29, "danger_level_m": 7.95, "difference_m": -2.66, "status": "normal", "as_of": "2026-09-02", "source": "forecast"}}, {"type": "Feature", "geometry": {"type": "Point", "coordinates": [89.099998, 23.961]}, "properties": {"gauge_id": "ffwc_92", "station": "Talbaria", "river": "Ganges", "district": "Kushtia", "water_level_m": 11.62, "danger_level_m": 13.05, "difference_m": -1.43, "status": "normal", "as_of": "2026-09-02", "source": "forecast"}}, {"type": "Feature", "geometry": {"type": "Point", "coordinates": [89.70111, 25.104949]}, "properties": {"gauge_id": "ffwc_66", "station": "Bahadurabad", "river": "Jamuna", "district": "Jamalpur", "water_level_m": 17.39, "danger_level_m": 19.05, "difference_m": -1.66, "status": "normal", "as_of": "2026-09-02", "source": "forecast"}}, {"type": "Feature", "geometry": {"type": "Point", "coordinates": [89.772772, 23.881297]}, "properties": {"gauge_id": "ffwc_38", "station": "Aricha", "river": "Jamuna", "district": "Manikganj", "water_level_m": 7.54, "danger_level_m": 8.95, "difference_m": -1.41, "status": "normal", "as_of": "2026-09-02", "source": "forecast"}}, {"type": "Feature", "geometry": {"type": "Point", "coordinates": [90.419454, 23.696849]}, "properties": {"gauge_id": "ffwc_32", "station": "Dhaka", "river": "Buriganga", "district": "Dhaka", "water_level_m": 2.95, "danger_level_m": 5.55, "difference_m": -2.6, "status": "normal", "as_of": "2026-09-02", "source": "forecast"}}, {"type": "Feature", "geometry": {"type": "Point", "coordinates": [90.206392, 23.511165]}, "properties": {"gauge_id": "ffwc_25", "station": "Bhagyakul", "river": "Padma", "district": "Munshiganj", "water_level_m": 4.73, "danger_level_m": 5.85, "difference_m": -1.12, "status": "normal", "as_of": "2026-09-02", "source": "forecast"}}, {"type": "Feature", "geometry": {"type": "Point", "coordinates": [89.516256, 23.539828]}, "properties": {"gauge_id": "ffwc_24", "station": "Kamarkhali", "river": "Gorai", "district": "Magura", "water_level_m": 7.17, "danger_level_m": 7.75, "difference_m": -0.58, "status": "warning", "as_of": "2026-09-02", "source": "forecast"}}, {"type": "Feature", "geometry": {"type": "Point", "coordinates": [89.689858, 24.635869]}, "properties": {"gauge_id": "ffwc_87", "station": "Kazipur", "river": "Jamuna", "district": "Sirajganj", "water_level_m": 12.6, "danger_level_m": 14.8, "difference_m": -2.2, "status": "normal", "as_of": "2026-09-02", "source": "forecast"}}, {"type": "Feature", "geometry": {"type": "Point", "coordinates": [90.207596, 24.082164]}, "properties": {"gauge_id": "ffwc_112", "station": "Kaliakoir", "river": "Turag", "district": "Gazipur", "water_level_m": 6.44, "danger_level_m": 7.95, "difference_m": -1.51, "status": "normal", "as_of": "2026-09-02", "source": "forecast"}}, {"type": "Feature", "geometry": {"type": "Point", "coordinates": [90.650532, 24.040344]}, "properties": {"gauge_id": "ffwc_101", "station": "Lakhpur", "river": "Lakhya", "district": "Gazipur", "water_level_m": 3.9, "danger_level_m": 5.35, "difference_m": -1.45, "status": "normal", "as_of": "2026-09-02", "source": "forecast"}}, {"type": "Feature", "geometry": {"type": "Point", "coordinates": [89.967658, 24.923502]}, "properties": {"gauge_id": "ffwc_62", "station": "Jamalpur", "river": "Old Brahmaputra", "district": "Jamalpur", "water_level_m": 11.08, "danger_level_m": 16.55, "difference_m": -5.47, "status": "normal", "as_of": "2026-09-02", "source": "forecast"}}, {"type": "Feature", "geometry": {"type": "Point", "coordinates": [88.857085, 23.787087]}, "properties": {"gauge_id": "ffwc_36", "station": "Hatboalia", "river": "Mathabhanga", "district": "Chuadanga", "water_level_m": 8.64, "danger_level_m": 14.05, "difference_m": -5.41, "status": "normal", "as_of": "2026-09-02", "source": "forecast"}}, {"type": "Feature", "geometry": {"type": "Point", "coordinates": [89.650002, 23.9496]}, "properties": {"gauge_id": "ffwc_102", "station": "Mathura", "river": "Jamuna", "district": "Pabna", "water_level_m": 8.02, "danger_level_m": 9.6, "difference_m": -1.58, "status": "normal", "as_of": "2026-09-02", "source": "forecast"}}, {"type": "Feature", "geometry": {"type": "Point", "coordinates": [90.469183, 23.63343]}, "properties": {"gauge_id": "ffwc_28", "station": "Hariharpara", "river": "Buriganga", "district": "Munshiganj", "water_level_m": 3.16, "danger_level_m": 5.35, "difference_m": -2.19, "status": "normal", "as_of": "2026-09-02", "source": "forecast"}}, {"type": "Feature", "geometry": {"type": "Point", "coordinates": [90.260002, 23.4704]}, "properties": {"gauge_id": "ffwc_88", "station": "Mawa", "river": "Padma", "district": "Munshiganj", "water_level_m": 4.42, "danger_level_m": 5.65, "difference_m": -1.23, "status": "normal", "as_of": "2026-09-02", "source": "forecast"}}, {"type": "Feature", "geometry": {"type": "Point", "coordinates": [89.03352, 24.06764]}, "properties": {"gauge_id": "ffwc_43", "station": "Hardinge-RB", "river": "Ganges", "district": "Pabna", "water_level_m": 12.3, "danger_level_m": 13.8, "difference_m": -1.5, "status": "normal", "as_of": "2026-09-02", "source": "forecast"}}, {"type": "Feature", "geometry": {"type": "Point", "coordinates": [90.336562, 23.784904]}, "properties": {"gauge_id": "ffwc_35", "station": "Mirpur", "river": "Turag", "district": "Dhaka", "water_level_m": 3.74, "danger_level_m": 5.5, "difference_m": -1.76, "status": "normal", "as_of": "2026-09-02", "source": "forecast"}}, {"type": "Feature", "geometry": {"type": "Point", "coordinates": [89.182899, 23.883877]}, "properties": {"gauge_id": "ffwc_40", "station": "Gorai-RB", "river": "Gorai", "district": "Kushtia", "water_level_m": 10.72, "danger_level_m": 12.3, "difference_m": -1.58, "status": "normal", "as_of": "2026-09-02", "source": "forecast"}}, {"type": "Feature", "geometry": {"type": "Point", "coordinates": [89.778872, 23.768642]}, "properties": {"gauge_id": "ffwc_34", "station": "Goalondo", "river": "Padma", "district": "Rajbari", "water_level_m": 7.39, "danger_level_m": 8.2, "difference_m": -0.81, "status": "warning", "as_of": "2026-09-02", "source": "forecast"}}, {"type": "Feature", "geometry": {"type": "Point", "coordinates": [90.431068, 24.737208]}, "properties": {"gauge_id": "ffwc_53", "station": "Mymensingh", "river": "Old Brahmaputra", "district": "Mymensingh", "water_level_m": 5.47, "danger_level_m": 12.05, "difference_m": -6.58, "status": "normal", "as_of": "2026-09-02", "source": "forecast"}}, {"type": "Feature", "geometry": {"type": "Point", "coordinates": [89.610001, 25.186701]}, "properties": {"gauge_id": "ffwc_110", "station": "Fulchari", "river": "Jamuna", "district": "Gaibandha", "water_level_m": 17.41, "danger_level_m": 19.35, "difference_m": -1.94, "status": "normal", "as_of": "2026-09-02", "source": "forecast"}}, {"type": "Feature", "geometry": {"type": "Point", "coordinates": [89.835279, 24.167426]}, "properties": {"gauge_id": "ffwc_103", "station": "Elasinghat", "river": "Dhaleswari", "district": "Tangail", "water_level_m": 7.95, "danger_level_m": 10.95, "difference_m": -3.0, "status": "normal", "as_of": "2026-09-02", "source": "forecast"}}, {"type": "Feature", "geometry": {"type": "Point", "coordinates": [90.514175, 23.630486]}, "properties": {"gauge_id": "ffwc_31", "station": "Narayanganj", "river": "Lakhya", "district": "Narayanganj", "water_level_m": 2.58, "danger_level_m": 5.05, "difference_m": -2.47, "status": "normal", "as_of": "2026-09-02", "source": "forecast"}}, {"type": "Feature", "geometry": {"type": "Point", "coordinates": [90.230264, 23.911094]}, "properties": {"gauge_id": "ffwc_44", "station": "Nayarhat", "river": "Bangshi", "district": "Tangail", "water_level_m": 4.33, "danger_level_m": 6.85, "difference_m": -2.52, "status": "normal", "as_of": "2026-09-02", "source": "forecast"}}, {"type": "Feature", "geometry": {"type": "Point", "coordinates": [90.496305, 23.732784]}, "properties": {"gauge_id": "ffwc_33", "station": "Demra", "river": "Balu", "district": "Dhaka", "water_level_m": 2.68, "danger_level_m": 5.3, "difference_m": -2.62, "status": "normal", "as_of": "2026-09-02", "source": "forecast"}}, {"type": "Feature", "geometry": {"type": "Point", "coordinates": [88.842925, 23.645365]}, "properties": {"gauge_id": "ffwc_30", "station": "Chuadanga", "river": "Mathabhanga", "district": "Chuadanga", "water_level_m": 7.28, "danger_level_m": 11.6, "difference_m": -4.32, "status": "normal", "as_of": "2026-09-02", "source": "forecast"}}, {"type": "Feature", "geometry": {"type": "Point", "coordinates": [89.815249, 24.147259]}, "properties": {"gauge_id": "ffwc_90", "station": "Porabari", "river": "Jamuna", "district": "Tangail", "water_level_m": 10.02, "danger_level_m": 11.8, "difference_m": -1.78, "status": "normal", "as_of": "2026-09-02", "source": "forecast"}}, {"type": "Feature", "geometry": {"type": "Point", "coordinates": [88.553699, 24.368824]}, "properties": {"gauge_id": "ffwc_45", "station": "Rajshahi", "river": "Ganges", "district": "Rajshahi", "water_level_m": 16.25, "danger_level_m": 18.05, "difference_m": -1.8, "status": "normal", "as_of": "2026-09-02", "source": "forecast"}}, {"type": "Feature", "geometry": {"type": "Point", "coordinates": [89.686153, 25.544273]}, "properties": {"gauge_id": "ffwc_72", "station": "Chilmari", "river": "Brahmaputra", "district": "Kurigram", "water_level_m": 21.68, "danger_level_m": 23.25, "difference_m": -1.57, "status": "normal", "as_of": "2026-09-02", "source": "forecast"}}, {"type": "Feature", "geometry": {"type": "Point", "coordinates": [89.767779, 25.429977]}, "properties": {"gauge_id": "ffwc_143", "station": "Char-Rajibpur", "river": "Brahmaputra", "district": "Kurigram", "water_level_m": 20.35, "danger_level_m": 23.5, "difference_m": -3.15, "status": "normal", "as_of": "2026-09-02", "source": "forecast"}}, {"type": "Feature", "geometry": {"type": "Point", "coordinates": [89.580654, 24.891637]}, "properties": {"gauge_id": "ffwc_95", "station": "Sariakandi", "river": "Jamuna", "district": "Bogra", "water_level_m": 14.65, "danger_level_m": 16.25, "difference_m": -1.6, "status": "normal", "as_of": "2026-09-02", "source": "forecast"}}, {"type": "Feature", "geometry": {"type": "Point", "coordinates": [88.249526, 24.599517]}, "properties": {"gauge_id": "ffwc_51", "station": "C-Nawabganj", "river": "Mohananda", "district": "Chapai Nawabganj", "water_level_m": 18.6, "danger_level_m": 20.55, "difference_m": -1.95, "status": "normal", "as_of": "2026-09-02", "source": "forecast"}}, {"type": "Feature", "geometry": {"type": "Point", "coordinates": [89.718387, 24.470952]}, "properties": {"gauge_id": "ffwc_48", "station": "Serajganj", "river": "Jamuna", "district": "Sirajganj", "water_level_m": 11.16, "danger_level_m": 12.9, "difference_m": -1.74, "status": "normal", "as_of": "2026-09-02", "source": "forecast"}}, {"type": "Feature", "geometry": {"type": "Point", "coordinates": [90.439032, 23.320123]}, "properties": {"gauge_id": "ffwc_22", "station": "Sureshswar", "river": "Padma", "district": "Shariatpur", "water_level_m": 2.6, "danger_level_m": 4.0, "difference_m": -1.4, "status": "normal", "as_of": "2026-09-02", "source": "forecast"}}, {"type": "Feature", "geometry": {"type": "Point", "coordinates": [90.4013, 23.881792]}, "properties": {"gauge_id": "ffwc_41", "station": "Tongi", "river": "Tongi Khal", "district": "Gazipur", "water_level_m": 3.84, "danger_level_m": 5.65, "difference_m": -1.81, "status": "normal", "as_of": "2026-09-02", "source": "forecast"}}]}